STARLINK-1737_new
1 16586C 20070BG  21326.13752684  .00001611  00000-0  10791-3 0  3262
2 16586  53.0552 358.1289 0001602  65.3247  93.1700 15.06406788    19
STARLINK-1737_old
1 26586C 20070BG  21325.16475304  .00001199  00000-0  80318-4 0  3258
2 26586  53.0549   2.4961 0001572  66.2553 213.9416 15.06394747    14
